[{"OBJECT_NAME":"STARLINK-31658","OBJECT_ID":"2024-073C","EPOCH":"2026-03-08T23:49:40.679616","MEAN_MOTION":15.27577693,"ECCENTRICITY":8.65e-5,"INCLINATION":43.0011,"RA_OF_ASC_NODE":281.6769,"ARG_OF_PERICENTER":234.2074,"MEAN_ANOMALY":125.8698,"EPHEMERIS_TYPE":0,"CLASSIFICATION_TYPE":"U","NORAD_CAT_ID":59513,"ELEMENT_SET_NO":999,"REV_AT_EPOCH":10652,"BSTAR":-3.7783113e-5,"MEAN_MOTION_DOT":-1.301e-5,"MEAN_MOTION_DDOT":0},{"OBJECT_NAME":"ELECTRON KICK STAGE R\/B","OBJECT_ID":"2022-147B","EPOCH":"2026-03-09T22:28:20.187264","MEAN_MOTION":15.28920172,"ECCENTRICITY":0.00095089,"INCLINATION":97.642,"RA_OF_ASC_NODE":85.1135,"ARG_OF_PERICENTER":110.4683,"MEAN_ANOMALY":249.7578,"EPHEMERIS_TYPE":0,"CLASSIFICATION_TYPE":"U","NORAD_CAT_ID":54228,"ELEMENT_SET_NO":999,"REV_AT_EPOCH":18390,"BSTAR":0.00083201931,"MEAN_MOTION_DOT":0.00023374,"MEAN_MOTION_DDOT":0}]
